STARLINK-32239          
1 61892U 24204U   25169.03650196 -.00000431  00000+0 -24276-5 0  9996
2 61892  53.1612 276.6759 0001205 110.0241 250.0889 15.30191345 34578
STARLINK-32489          
1 61893U 24204V   25168.59502036 -.00001052  00000+0 -23394-4 0  9995
2 61893  53.1607 278.1896 0001172 101.3470 258.7663 15.30193492 34505
STARLINK-32303          
1 61912U 24207A   25169.46969156  .00017939  00000+0  65977-3 0  9998
2 61912  42.9951 333.8589 0000807 223.9640 136.1148 15.27582499 34891
STARLINK-32434          
1 61913U 24207B   25169.16974334  .00015327  00000+0  56523-3 0  9996
2 61913  43.0002 335.9262 0000859 275.9801  84.0953 15.27586173 34680
STARLINK-32460          
1 61914U 24207C   25169.44141937  .00018700  00000+0  68707-3 0  9998
2 61914  43.0013 333.6600 0001850 271.0153  89.0487 15.27592207 34898
STARLINK-32559          
1 61915U 24207D   25169.45555360  .00016899  00000+0  62192-3 0  9998
2 61915  43.0136 333.7695 0005085 282.0737  77.9545 15.27587288 34898
STARLINK-32541          
1 61916U 24207E   25169.49361917  .00016312  00000+0  60090-3 0  9991
2 61916  43.0013 337.5053 0001638 270.2614  89.8050 15.27583486 34693
STARLINK-32544          
1 61917U 24207F   25169.46326633  .00015627  00000+0  57604-3 0  9990
2 61917  43.0032 333.8172 0003207 274.1725  85.8760 15.27586489 34731
STARLINK-32555          
1 61918U 24207G   25169.43979387  .00020844  00000+0  76440-3 0  9994
2 61918  43.0024 337.9640 0002437 280.5383  79.5194 15.27597350 34687
STARLINK-32547          
1 61919U 24207H   25169.44270253  .00026848  00000+0  98093-3 0  9990
2 61919  43.0052 333.6648 0002368 270.9708  89.0872 15.27601777 34898
STARLINK-32616          
1 61920U 24207J   25169.47739950  .00023500  00000+0  86060-3 0  9992
2 61920  42.9980 333.9241 0000383 218.0672 142.0152 15.27585997 34894
STARLINK-32605          
1 61921U 24207K   25169.45940698  .00015814  00000+0  58278-3 0  9993
2 61921  43.0054 333.7891 0002935 278.0782  81.9737 15.27588163 34899
STARLINK-32579          
1 61922U 24207L   25169.48975781  .00013088  00000+0  48420-3 0  9997
2 61922  43.0025 337.4821 0000993 261.7080  98.3659 15.27586756 34750
STARLINK-32537          
1 61923U 24207M   25168.78850189  .00020127  00000+0  73892-3 0  9997
2 61923  43.0021 341.6744 0000860 297.1632  62.9131 15.27579984 34754
STARLINK-32564          
1 61924U 24207N   25169.17439226  .00024232  00000+0  88665-3 0  9992
2 61924  43.0003 339.4087 0002297 273.2863  86.7726 15.27598864 34816
STARLINK-32536          
1 61925U 24207P   25169.44622138  .00021654  00000+0  79369-3 0  9995
2 61925  43.0045 338.0105 0001919 265.4018  94.6615 15.27596387 34851
STARLINK-32624          
1 61926U 24207Q   25169.43627910  .00021227  00000+0  77830-3 0  9995
2 61926  43.0000 333.6172 0000616 340.9439  19.1390 15.27596004 34901
STARLINK-32622          
1 61927U 24207R   25169.44398947  .00020824  00000+0  76374-3 0  9996
2 61927  43.0019 333.6759 0001815 271.6180  88.4464 15.27595999 34798
STARLINK-32620          
1 61928U 24207S   25169.47354525  .00028505  00000+0  10410-2 0  9996
2 61928  42.9954 333.8890 0000486 206.3776 153.7050 15.27591914 34736
STARLINK-32609          
1 61929U 24207T   25169.46583336  .00023778  00000+0  87015-3 0  9993
2 61929  42.9949 333.8307 0000819 272.9271  87.1487 15.27604807 34733
STARLINK-32567          
1 61930U 24207U   25169.48045023  .00030021  00000+0  10956-2 0  9991
2 61930  42.9990 330.4690 0001015 259.9666 100.1071 15.27593002 34932
STARLINK-32420          
1 61931U 24207V   25169.45170208  .00025559  00000+0  93463-3 0  9998
2 61931  43.0060 333.7325 0002416 273.8508  86.2067 15.27595401 34899
STARLINK-32354          
1 61932U 24207W   25168.77821740  .00022906  00000+0  83880-3 0  9992
2 61932  42.9976 341.5898 0000351 160.9081 199.1784 15.27600158 34654
STARLINK-32361          
1 61933U 24207X   25169.17230546  .00026056  00000+0  95260-3 0  9991
2 61933  43.0033 335.9165 0001873 267.5923  92.4714 15.27594428 34744
STARLINK-32500          
1 61935U 24207Z   25169.48590936  .00019681  00000+0  72263-3 0  9993
2 61935  42.9974 337.4406 0001590 283.3003  76.7671 15.27588237 34854
STARLINK-11407 [DTC]    
1 61939U 24209A   25169.54268155  .00232218  00000+0  18660-2 0  9994
2 61939  53.1567 233.1904 0001619  46.4017 313.7135 15.69741586 35191
STARLINK-11337 [DTC]    
1 61940U 24209B   25169.47410292  .00146909  00000+0  11928-2 0  9990
2 61940  53.1570 233.4713 0001090  94.0874 266.0269 15.69776673 35228
STARLINK-11353 [DTC]    
1 61941U 24209C   25169.46919768  .00108057  00000+0  88367-3 0  9996
2 61941  53.1568 233.4385 0001142  87.6600 272.4549 15.69751454 35181
STARLINK-11320 [DTC]    
1 61942U 24209D   25169.46439385  .00157692  00000+0  12783-2 0  9996
2 61942  53.1564 234.1404 0001158  93.1531 266.9619 15.69777146 35171
STARLINK-11425 [DTC]    
1 61943U 24209E   25169.52315811  .00134027  00000+0  10914-2 0  9992
2 61943  53.1560 233.7948 0000815  59.1295 300.9803 15.69752941 35185
STARLINK-11422 [DTC]    
1 61944U 24209F   25169.45458499  .00131767  00000+0  10734-2 0  9993
2 61944  53.1570 234.0754 0001349  48.5586 311.5547 15.69752177 35177
STARLINK-11421 [DTC]    
1 61945U 24209G   25169.44967812  .00210749  00000+0  16969-2 0  9991
2 61945  53.1574 234.0426 0001839  92.0868 268.0361 15.69761925 35170
STARLINK-11410 [DTC]    
1 61946U 24209H   25169.50844207  .00169536  00000+0  13753-2 0  9996
2 61946  53.1573 233.6936 0001059  99.1004 261.0134 15.69718828 35226
STARLINK-11390 [DTC]    
1 61947U 24209J   25169.56719646  .00100638  00000+0  82422-3 0  9999
2 61947  53.1573 233.3495 0004533 162.9026 197.2145 15.69737442 35255
STARLINK-11414 [DTC]    
1 61948U 24209K   25169.48391855  .00150218  00000+0  12219-2 0  9994
2 61948  53.1568 233.5334 0001907  29.5850 330.5275 15.69720100 35236
STARLINK-11424 [DTC]    
1 61949U 24209L   25169.42514979  .00118596  00000+0  96844-3 0  9993
2 61949  53.1574 233.8804 0000684  26.3116 333.7937 15.69744372 35170
STARLINK-11423 [DTC]    
1 61950U 24209M   25169.49863637  .00160975  00000+0  13075-2 0  9992
2 61950  53.1565 233.6329 0002272  24.4674 335.6451 15.69716944 35227
STARLINK-11395 [DTC]    
1 61951U 24209N   25169.43005523  .00105020  00000+0  85949-3 0  9999
2 61951  53.1569 233.9111 0000830  71.4083 288.7025 15.69745815 35198
STARLINK-32572          
1 61952U 24209P   25169.05969100  .00021777  00000+0  74525-3 0  9992
2 61952  53.1604 291.3918 0000909  79.3255 280.7848 15.30199397 34388
STARLINK-32585          
1 61953U 24209Q   25168.64047657  .00020541  00000+0  70421-3 0  9990
2 61953  53.1583 293.7488 0001193  90.6465 269.4673 15.30177642 34310
STARLINK-32574          
1 61954U 24209R   25168.65102859  .00008412  00000+0  29584-3 0  9995
2 61954  53.1584 293.8138 0000984  80.6087 279.5025 15.30198548 34334
STARLINK-32583          
1 61955U 24209S   25169.35260529  .00024162  00000+0  82501-3 0  9991
2 61955  53.1590 290.3670 0001081  72.8722 287.2397 15.30210179 34448
STARLINK-32273          
1 61956U 24209T   25169.06496636  .00020298  00000+0  69558-3 0  9993
2 61956  53.1607 291.4169 0001281  89.6530 270.4618 15.30199306 34389
STARLINK-32359          
1 61957U 24209U   25168.62781102  .00002675  00000+0  10243-3 0  9996
2 61957  53.1591 293.6674 0001295  93.6235 266.4914 15.30192391 34335
STARLINK-32566          
1 61958U 24209V   25169.06180050  .00010350  00000+0  36110-3 0  9991
2 61958  53.1614 291.3984 0001165  98.2908 261.8225 15.30198642 34402
STARLINK-32499          
1 61959U 24210A   25169.45664197 -.00004494  00000+0 -15378-3 0  9993
2 61959  42.9994 231.6687 0002204 275.1551  84.9049 15.27599024 34472
STARLINK-32372          
1 61960U 24210B   25169.20282499  .00018409  00000+0  67668-3 0  9997
2 61960  42.9996 233.2068 0000591 234.6735 125.4061 15.27586398 34271
STARLINK-32452          
1 61961U 24210C   25168.88585447  .00017860  00000+0  65734-3 0  9992
2 61961  43.0016 228.2045 0001386 280.0009  80.0686 15.27561761 34353
STARLINK-32458          
1 61962U 24210D   25168.83259323  .00030844  00000+0  74192-3 0  9994
2 61962  42.9988 221.7465 0001811 278.9786  81.0865 15.40729317 34566
STARLINK-32487          
1 61963U 24210E   25169.49392497  .00015394  00000+0  56756-3 0  9997
2 61963  43.0015 231.9486 0001643 272.4296  87.6367 15.27591694 34473
STARLINK-32513          
1 61964U 24210F   25169.47639742  .00043191  00000+0  10340-2 0  9997
2 61964  43.0001 217.9776 0001458 268.9674  91.1016 15.40739659 34638
STARLINK-32514          
1 61965U 24210G   25169.21663979  .00009856  00000+0  36698-3 0  9994
2 61965  43.0004 226.3853 0001077 238.1653 121.9094 15.27599947 34519
STARLINK-32498          
1 61966U 24210H   25168.44137736  .00025265  00000+0  61003-3 0  9996
2 61966  43.0011 223.9681 0002360 273.2389  86.8197 15.40700565 34509
STARLINK-32518          
1 61967U 24210J   25169.17692460  .00016070  00000+0  59208-3 0  9996
2 61967  42.9988 226.7560 0001313 273.8588  86.2113 15.27587549 34335
STARLINK-32471          
1 61968U 24210K   25169.46790076  .00013133  00000+0  48553-3 0  9999
2 61968  43.0008 224.8381 0001321 283.3281  76.7423 15.27605117 34594
STARLINK-32450          
1 61969U 24210L   25169.21021375  .00005145  00000+0  19628-3 0  9997
2 61969  43.0006 226.3390 0001420 270.4797  89.5892 15.27594222 34359
STARLINK-32613          
1 61970U 24210M   25169.18498228  .00015896  00000+0  58571-3 0  9994
2 61970  42.9983 233.9294 0001141 253.7474 106.3252 15.27592544 34461
STARLINK-32610          
1 61971U 24210N   25169.24265720  .00008090  00000+0  30310-3 0  9990
2 61971  42.9992 233.5015 0001432 261.1386  98.9304 15.27590434 34478
STARLINK-32612          
1 61972U 24210P   25169.24651252  .00013586  00000+0  50200-3 0  9996
2 61972  42.9981 233.5312 0001310 249.3217 110.7494 15.27599879 34434
